ONEWEB-0331             
1 49198U 21083N   25267.88307599 -.00000029  00000+0 -10533-3 0  9993
2 49198  87.9210  28.1274 0002047  93.4457 266.6909 13.18685077195042
ONEWEB-0333             
1 49199U 21083P   25267.81359718  .00000181  00000+0  46138-3 0  9994
2 49199  87.9036  12.9881 0001671 101.1295 259.0022 13.13471532196073
ONEWEB-0334             
1 49200U 21083Q   25267.61497894 -.00000007  00000+0 -48983-4 0  9993
2 49200  87.9252 327.4188 0001015 121.1228 239.0005 13.20772522201730
ONEWEB-0335             
1 49201U 21083R   25267.80851056  .00000035  00000+0  60252-4 0  9991
2 49201  87.9036  12.9766 0001850  96.2982 263.8358 13.13470902196081
ONEWEB-0336             
1 49202U 21083S   25267.85589976 -.00000279  00000+0 -79894-3 0  9999
2 49202  87.9038  12.9610 0002140  94.8555 265.2819 13.13467724196081
ONEWEB-0337             
1 49203U 21083T   25267.78975464 -.00000287  00000+0 -82217-3 0  9995
2 49203  87.9050  12.9799 0001991 102.2515 257.8837 13.13468405196070
ONEWEB-0338             
1 49204U 21083U   25267.43822190  .00000143  00000+0  32048-3 0  9991
2 49204  87.9258 327.4537 0001643 103.7338 256.3978 13.20770221201738
ONEWEB-0339             
1 49205U 21083V   25267.79836398 -.00000145  00000+0 -43257-3 0  9994
2 49205  87.9047  12.9621 0001758 106.0210 254.1113 13.13469260196052
